STARLINK-1912           
1 47178U 20088BJ  26196.91668980  .00140402  00000+0  58759-3 0  9993
2 47178  53.0423   8.1160 0006049 294.5782  67.2468 15.84683629  5839
STARLINK-1913           
1 47179U 20088BK  26196.79134431  .00034274  00000+0  92369-3 0  9993
2 47179  53.1571  69.5760 0004157 119.8307 240.3111 15.37524176311414
STARLINK-2017           
1 47351U 21005C   26196.88627196  .00001647  00000+0  64832-4 0  9993
2 47351  53.1594 137.1758 0001298  92.1782 267.9368 15.31696334303367
STARLINK-2034           
1 47352U 21005D   26196.35487966  .00002465  00000+0  91143-4 0  9999
2 47352  53.1589 178.7160 0001330  95.3937 264.7216 15.31712271302730
STARLINK-2045           
1 47353U 21005E   26196.21136281  .00001518  00000+0  60681-4 0  9997
2 47353  53.1603 127.3114 0001220  97.7052 262.4088 15.31700588303448
STARLINK-2046           
1 47354U 21005F   26196.29174358  .00002377  00000+0  88311-4 0  9997
2 47354  53.1601 150.2625 0001255  87.9269 272.1876 15.31704436303122
STARLINK-2047           
1 47355U 21005G   26196.19078831  .00000090  00000+0  14660-4 0  9992
2 47355  53.1605 137.7461 0001373  95.6402 264.4756 15.31707962303286
STARLINK-2049           
1 47356U 21005H   26196.37406328  .00000438  00000+0  25887-4 0  9998
2 47356  53.1605 162.8715 0001507  84.0678 276.0495 15.31708082302949
STARLINK-2050           
1 47357U 21005J   26196.29700372  .00000358  00000+0  23317-4 0  9993
2 47357  53.1594 189.1441 0001335  86.8875 273.2279 15.31697403302575
STARLINK-2055           
1 47358U 21005K   26196.35291394  .00027447  00000+0  86032-3 0  9990
2 47358  53.1581 163.3258 0003144  52.1568 307.9718 15.32891546302935
STARLINK-2071           
1 47361U 21005N   26196.30488345  .00002801  00000+0  10200-3 0  9994
2 47361  53.1596 163.6586 0001042  88.3739 271.7382 15.31698621302920
STARLINK-2076           
1 47362U 21005P   26196.26666205  .00031102  00000+0  81154-3 0  9995
2 47362  53.1556 186.9265 0006168  32.9026 327.2362 15.38560783302601
STARLINK-2081           
1 47366U 21005T   26196.35722554 -.00000850  00000+0 -15632-4 0  9996
2 47366  53.1578 188.5723 0001341  97.5316 262.5838 15.31698149302580
STARLINK-2082           
1 47367U 21005U   26196.25935189  .00000684  00000+0  33814-4 0  9991
2 47367  53.1590 189.1039 0001315  95.1729 264.9423 15.31708186302573
STARLINK-2084           
1 47368U 21005V   26196.69311929  .00001305  00000+0  53803-4 0  9991
2 47368  53.1585 186.9252 0001108  90.9239 269.1890 15.31696562302646
STARLINK-2088           
1 47371U 21005Y   26196.69829154  .00000949  00000+0  42344-4 0  9990
2 47371  53.1577 190.7411 0001423  82.6279 277.4884 15.31703039302589
STARLINK-2092           
1 47373U 21005AA  26196.37583767 -.00002703  00000+0 -75383-4 0  9995
2 47373  53.1573 188.3842 0001389 102.4700 257.6457 15.31695729302592
STARLINK-2094           
1 47375U 21005AC  26196.33856517  .00001465  00000+0  58941-4 0  9992
2 47375  53.1572 188.5911 0001316  73.1784 286.9361 15.31706478302580
STARLINK-2096           
1 47376U 21005AD  26196.21272752  .00001024  00000+0  44768-4 0  9996
2 47376  53.1569 189.1855 0001217  65.7739 294.3390 15.31705448302567
STARLINK-2097           
1 47377U 21005AE  26196.37704548  .00002878  00000+0  10455-3 0  9990
2 47377  53.1589 192.1725 0001339  66.1360 293.9781 15.31678677302539
STARLINK-2098           
1 47378U 21005AF  26196.33636980  .00000267  00000+0  20364-4 0  9992
2 47378  53.1601 140.2487 0001275  91.1781 268.9367 15.31706919303273
STARLINK-2099           
1 47379U 21005AG  26196.80236215  .00001124  00000+0  47975-4 0  9992
2 47379  53.1593 137.4485 0001361  92.6721 267.4436 15.31699954303356
STARLINK-2100           
1 47380U 21005AH  26196.91668980  .00221557  29618-4  63896-3 0  9998
2 47380  53.0481 124.6292 0005561  86.6129 236.2215 15.92643053  5857
STARLINK-2101           
1 47381U 21005AJ  26196.28624278  .00000700  00000+0  34309-4 0  9993
2 47381  53.1599 163.7284 0001147  98.8423 261.2708 15.31700594302933
STARLINK-2102           
1 47382U 21005AK  26196.27410147 -.00009873  00000+0 -30656-3 0  9993
2 47382  53.1587 152.9070 0001167 101.0188 259.0945 15.31723902303084
STARLINK-2103           
1 47383U 21005AL  26196.84900240  .00031133  00000+0  84270-3 0  9998
2 47383  53.1565 136.5367 0005404  64.0094 296.1466 15.37432454303377
STARLINK-2104           
1 47384U 21005AM  26196.27226046  .00003660  00000+0  12965-3 0  9997
2 47384  53.1596 163.8039 0001455  96.2920 263.8247 15.31703354302920
STARLINK-2105           
1 47385U 21005AN  26196.26222010  .00000589  00000+0  30735-4 0  9997
2 47385  53.1599 163.5138 0001163  84.8283 275.2851 15.31713492302924
STARLINK-2106           
1 47386U 21005AP  26196.32353679  .00006811  00000+0  23107-3 0  9999
2 47386  53.1596 163.5845 0001411  91.1693 268.9470 15.31695670302933
STARLINK-2109           
1 47388U 21005AR  26196.47456332  .00000667  00000+0  33251-4 0  9992
2 47388  53.1591 191.7165 0001239  84.9602 275.1541 15.31711769302540
