OBJECT_NAME,OBJECT_ID,EPOCH,MEAN_MOTION,ECCENTRICITY,INCLINATION,RA_OF_ASC_NODE,ARG_OF_PERICENTER,MEAN_ANOMALY,EPHEMERIS_TYPE,CLASSIFICATION_TYPE,NORAD_CAT_ID,ELEMENT_SET_NO,REV_AT_EPOCH,BSTAR,MEAN_MOTION_DOT,MEAN_MOTION_DDOT
STARLINK-1912,2020-088BJ,2026-07-15T22:00:01.998720,15.84683629,.0006049,53.0423,8.1160,294.5782,67.2468,0,U,47178,999,583,.58759E-3,.140402E-2,0
STARLINK-1913,2020-088BK,2026-07-15T18:59:32.148384,15.37524176,.0004157,53.1571,69.5760,119.8307,240.3111,0,U,47179,999,31141,.92369E-3,.34274E-3,0
STARLINK-2017,2021-005C,2026-07-15T21:16:13.897344,15.31696334,.0001298,53.1594,137.1758,92.1782,267.9368,0,U,47351,999,30336,.64832E-4,.1647E-4,0
STARLINK-2034,2021-005D,2026-07-15T08:31:01.602624,15.31712271,.000133,53.1589,178.7160,95.3937,264.7216,0,U,47352,999,30273,.9114268E-4,.2465E-4,0
STARLINK-2045,2021-005E,2026-07-15T05:04:21.746784,15.31700588,.00012202,53.1603,127.3114,97.7052,262.4088,0,U,47353,999,30344,.60680952E-4,.1518E-4,0
STARLINK-2046,2021-005F,2026-07-15T07:00:06.645312,15.31704436,.00012551,53.1601,150.2625,87.9269,272.1876,0,U,47354,999,30312,.88310764E-4,.2377E-4,0
STARLINK-2047,2021-005G,2026-07-15T04:34:44.109984,15.31707962,.00013739,53.1605,137.7461,95.6402,264.4756,0,U,47355,999,30328,.14659607E-4,.9E-6,0
STARLINK-2049,2021-005H,2026-07-15T08:58:39.067392,15.31708082,.00015073,53.1605,162.8715,84.0678,276.0495,0,U,47356,999,30294,.25887071E-4,.438E-5,0
STARLINK-2050,2021-005J,2026-07-15T07:07:41.121408,15.31697403,.00013358,53.1594,189.1441,86.8875,273.2279,0,U,47357,999,30257,.23316808E-4,.358E-5,0
STARLINK-2055,2021-005K,2026-07-15T08:28:11.764416,15.32891546,.00031442,53.1581,163.3258,52.1568,307.9718,0,U,47358,999,30293,.86032171E-3,.27447E-3,0
STARLINK-2071,2021-005N,2026-07-15T07:19:01.930080,15.31698621,.00010427,53.1596,163.6586,88.3739,271.7382,0,U,47361,999,30292,.10200353E-3,.2801E-4,0
STARLINK-2076,2021-005P,2026-07-15T06:23:59.601120,15.38560783,.00061687,53.1556,186.9265,32.9026,327.2362,0,U,47362,999,30260,.81154278E-3,.31102E-3,0
STARLINK-2081,2021-005T,2026-07-15T08:34:24.286656,15.31698149,.00013411,53.1578,188.5723,97.5316,262.5838,0,U,47366,999,30258,-.1563166E-4,-.85E-5,0
STARLINK-2082,2021-005U,2026-07-15T06:13:28.003296,15.31708186,.00013159,53.1590,189.1039,95.1729,264.9423,0,U,47367,999,30257,.33814299E-4,.684E-5,0
STARLINK-2084,2021-005V,2026-07-15T16:38:05.506656,15.31696562,.0001108,53.1585,186.9252,90.9239,269.1890,0,U,47368,999,30264,.53803E-4,.1305E-4,0
STARLINK-2088,2021-005Y,2026-07-15T16:45:32.389056,15.31703039,.0001423,53.1577,190.7411,82.6279,277.4884,0,U,47371,999,30258,.42344E-4,.949E-5,0
STARLINK-2092,2021-005AA,2026-07-15T09:01:12.374688,15.31695729,.0001389,53.1573,188.3842,102.4700,257.6457,0,U,47373,999,30259,-.75382745E-4,-.2703E-4,0
STARLINK-2094,2021-005AC,2026-07-15T08:07:32.030688,15.31706478,.00013161,53.1572,188.5911,73.1784,286.9361,0,U,47375,999,30258,.58940615E-4,.1465E-4,0
STARLINK-2096,2021-005AD,2026-07-15T05:06:19.657728,15.31705448,.00012177,53.1569,189.1855,65.7739,294.3390,0,U,47376,999,30256,.44767658E-4,.1024E-4,0
STARLINK-2097,2021-005AE,2026-07-15T09:02:56.729472,15.31678677,.00013398,53.1589,192.1725,66.1360,293.9781,0,U,47377,999,30253,.1045503E-3,.2878E-4,0
STARLINK-2098,2021-005AF,2026-07-15T08:04:22.350720,15.31706919,.00012754,53.1601,140.2487,91.1781,268.9367,0,U,47378,999,30327,.20364033E-4,.267E-5,0
STARLINK-2099,2021-005AG,2026-07-15T19:15:24.089760,15.31699954,.0001361,53.1593,137.4485,92.6721,267.4436,0,U,47379,999,30335,.47975E-4,.1124E-4,0
STARLINK-2100,2021-005AH,2026-07-15T22:00:01.998720,15.92643053,.0005561,53.0481,124.6292,86.6129,236.2215,0,U,47380,999,585,.63896E-3,.221557E-2,.29618E-4
STARLINK-2101,2021-005AJ,2026-07-15T06:52:11.376192,15.31700594,.00011473,53.1599,163.7284,98.8423,261.2708,0,U,47381,999,30293,.3430949E-4,.7E-5,0
STARLINK-2102,2021-005AK,2026-07-15T06:34:42.367008,15.31723902,.00011676,53.1587,152.9070,101.0188,259.0945,0,U,47382,999,30308,-.30656471E-3,-.9873E-4,0
STARLINK-2103,2021-005AL,2026-07-15T20:22:33.807360,15.37432454,.0005404,53.1565,136.5367,64.0094,296.1466,0,U,47383,999,30337,.8427E-3,.31133E-3,0
STARLINK-2104,2021-005AM,2026-07-15T06:32:03.303744,15.31703354,.00014559,53.1596,163.8039,96.2920,263.8247,0,U,47384,999,30292,.12965096E-3,.366E-4,0
STARLINK-2105,2021-005AN,2026-07-15T06:17:35.816640,15.31713492,.00011639,53.1599,163.5138,84.8283,275.2851,0,U,47385,999,30292,.30735143E-4,.589E-5,0
STARLINK-2106,2021-005AP,2026-07-15T07:45:53.578656,15.31695670,.00014111,53.1596,163.5845,91.1693,268.9470,0,U,47386,999,30293,.23107143E-3,.6811E-4,0
STARLINK-2109,2021-005AR,2026-07-15T11:23:22.270848,15.31711769,.00012395,53.1591,191.7165,84.9602,275.1541,0,U,47388,999,30254,.33251025E-4,.667E-5,0
